id,address,city,state,zip,country
8513287,2390 Bob Phillips Road,Bartow,FL,33830,US
84776728,Ecole Amikobi 303-1320 Boulevard Forest Val-d''Or J9P2M3 Canada Map,Lac-Simon,QC,,CA
8494382,1 7th St SW,Minot,ND,58701,US
97322969,"7 Av. Paul Valéry, 34800 Clermont-l'Hérault, France",,,,FR
6024996,,Wien,,1090,FR
1694432,3121 W Bryon Street,Chicago,IL,60618,US
8533660,5400 Seymour Road,Jackson,MI,49201,US
6024327,,MONTBRISON,,42600,FR
8521533,P O Box 39,Perrin,TX,76486,US
8490067,209 Pine St,Lexington,MS,39095,US
3407680,,,,,
8496344,5901 O St,Lincoln,NE,68510,US
96717274,28 Naber Street,Mayville,WI,53050,US
6084201,1203 W. Pioneer Parkway,Arlington,TX,76013,US
7815047,,Brooklyn,NY,,
6024391,,bourg saint mazurice,,73700,FR
377364,,,,,
8277702,7807 Caldwell Road,Harrisburg,NC,28075,US
3326901,545 S WW White Rd,San Antonio,TX,78220,US
6295570,,,CA,,US
8527052,2601 Gabriel,Parsons,KS,67357,US
2436527,284 Main St.,Dansville,NY,14437,US
8926614,,,,,
4549023,,,,,
96931151,17200 SW 137th Ave,Miami,FL,33177,US
8487746,115 Fourth Ave. South,Birmingham,AL,35204,US
8275268,225 Rte 6a Bayberry Square,Orleans,MA,2653,US
19750928,"PO Box 107, 70 School Road",Wardsboro,VT,5355,US
4261456,,,,,AE
6024775,,,,,
6366449,11b Allan Place,Halls Head,,6210,AU
6294537,,,CA,,US
6295958,,,,,
9270538,550 Gridley Street,San Jose,CA,95127,US
60373,960 Ygnacio Valley Rd.,Walnut Creek,CA,94597,US
97111767,,,,,
8512600,7227 Land O' Lakes Boulevard,Land O' Lakes,FL,34638,US
8308105,43 San Benancio Road,Salinas,CA,93908,US
7085274,Rua Sá e Souza,Recife/PE,,51.030-065,BR
2521168,1700 S. O'Plaine Road,Libertyville,IL,60048,US
96750671,,,,,
66848299,3006 Appleby Ln,Columbia,SC,29223,US
6024085,,LONS LE SAUNIER,,39000,FR
6024762,,,,,
8529881,18360 Caldart Ave Ne,Poulsbo,WA,98370,US
226934,8125 Homeward Way,Sugar Land,TX,77479,US
8486595,No St Address,Clanton,AL,35045,US
8526179,3137 Second Ave East,Big Stone Gap,VA,24219,US
6275237,24 searington drive,syosset,NY,11791,
8520768,2405 Minnesota Street,Houston,TX,77034,US
8494599,500 Stanford Rd,Grand Forks,ND,58203,US
8516884,620 South Lauderdale Street,Memphis,TN,38126,US
6295992,,,,,
8491817,928 Surprise Creek Rd,Stanford,MT,59479,US
8503952,2046 Jet Wing Drive,Colorado Springs,CO,80916,US
8525375,800 8th Street,Americus,KS,66835,US
2560291,337 Maynard Grayson Rd,Clover,SC,29710,US
8485296,998 Selby Ave,Saint Paul,MN,55104,US
68490165,312 Old Wood Drive,Columbia,SC,29212,US
6024638,,,,,
50970840,723 East Pittsburgh Street,Greensburg,PA,15601,US
8521261,101 Southwest Maple Street,De Kalb,TX,75559,US
19320307,"Dasma area, Block 5",,,,QA
8494525,343 East Main Street,Stockton,CA,95202,US
8505849,1121 Tower Blvd,Lorain,OH,44052,US
6023992,,Les lilas,,93260,FR
8522606,1525 Fm 766,Cuero,TX,77954,US
6025371,,Tripoli,,,LY
44061559,,Queens,NY,11365,US
3407568,,,,,
5883163,"95 Pine Street, Floor 6",New York,NY,10016,US
6024376,,FEILLENS,,1570,FR
1126813,,,,,
3167989,Holtdale Approach,Leeds,W Yorkshire,LS16 7RX,GB
6024514,,Corbeil,,91100,FR
8277627,1242 South Main St,Graham,NC,27253,US
16306350,,"San Pedro Sula,",Cortes,,HN
84501846,Pater Dupierreuxlaan 1,Tervuren,,3080,BE
6024688,,,,,
1338560,1800 Horner Road,Woodbridge,VA,22191,US
8513414,355 State St,Larksville,PA,18704,US
5618025,15315 Stonebridge Pkwy,San Diego,CA,92131,US
58704010,8731 South Frontage Rd.,Mayhew,MS,39753,US
96638908,11801 Nuckols Rd,Glen Allen,VA,23059,US
10148761,999/123-124 Kesinee Ville,Huay Kwang,Bangkok,10310,TH
5059567,,,,CW10 0LN,GB
68433250,50 Court Street,Flemington,NJ,8822,US
59795352,"Av. Mas Fuster, 128",Valldoreix,Barcelona,8197,ES
8503613,1636 East Mission Road,Fallbrook,CA,92028,US
8492047,920 South Vulture Mine Rd,Wickenburg,AZ,85390,US
6296373,,,,,
8529880,2445 3rd Av,Seattle,WA,98124,US
96762325,6001 Gulf Freeway,Houston,TX,77023,US
8273165,1 East Washington St,Phoenix,AZ,85004,US
33871,Accounts Payable,Land O'Lakes,FL,34639,US
8528758,20100 84th Ave West,Edmonds,WA,98020,US
3451675,,,,,PA
8536206,100 Hwy 55 W,Kimball,MN,55353,US
6024474,,Saint Zacharie,,83640,FR
8273739,660 Menlo Dr,Rocklin,CA,95675,US
97108146,,,,,
6296135,,,,,
3407693,,,,,
23824504,205 Spring Hill Road,Storrs Mansfield,CT,6268,US
8279424,7310 Bishop Flores Drive,El Paso,TX,79912,US
8515055,1 Youth Estate Dr,Brunswick,GA,31525,US
8508592,500 Vine Street,Hartford,CT,6112,US
8496223,305 North 37th St,Norfolk,NE,68702,US
8512022,241 Trumbo Road,Key West,FL,33040,US
8277183,176a Main St,Conway,NH,3818,US
4290290,,,,EX33 1JT,GB
6024320,,Moret sur Loing,,77,FR
2252230,31 Gangsa Road,Bukit Panjang,,678972,SG
8495036,515 Maple,Nehawka,NE,68413,US
8535695,3600 Byron Center Avenue Southwest,Wyoming,MI,49519,US
2546360,16431 Lexington Blvd,Sugar Land,TX,77487,US
5943696,,,,,
8503298,34-65 192nd Street,Queens,NY,11358,US
5177775,,Newton-le-Willows,Merseyside,,GB
8279995,126 Hazen Union Dr,Hardwick,VT,5843,US
8491647,6810 West Thunderbird Rd,Peoria,AZ,85048,US
8507885,11601 Jeffords Avenue,Choctaw,OK,73020,US
6024965,,Lyon,,69002,FR
2651250,High Street,Sheffield,S Yorkshire,S36 6BS,GB
8493491,"2360 Shasta Way, Unit A",Simi Valley,CA,93065,US
8975419,,,,,
8493352,400 Old Smithfield Rd,Goldsboro,NC,27530,US
8523174,P O Box 162,Christoval,TX,76935,US
8273695,11625 West Pico Boulevard,West Los Angeles,CA,90064-2908,US
4420368,1403 Honaker Ave,Princeton,WV,24740,US
6024961,,Amiens,,80000,FR
8491146,6355 Padre Ln,Missoula,MT,59802,US
8504198,1526 Cole Boulevard,Golden,CO,80401,US
6296371,,,,,
1956535,16 Jalan Kiara 3,Kuala Lumpur,,50480,MY
2688979,PO Box 849,Amherst,NH,3031,US
27866751,,,,,US
67958009,,,New Jersey,,US
8486246,5620 Memorial Ave N,Stillwater,MN,55082,US
551970,,,TX,,
8499644,,San Marcos,CA,92069,US
8505176,50 East Dublin Granville Rd,Columbus,OH,43215,US
8491540,282 Lustre Rd,Frazer,MT,59225,US
1941587,Southern River Road,Gosnells,WA,6110,AU
8493450,501 Gold Strike Road,San Andreas,CA,95249,US
68134663,907 W. Theo,San Antonio,TX,78225,US
8530778,1 Main Street,Oxford,MA,1540,US
33152911,7227 Land O' Lakes Blvd,Land O Lakes,FL,34638,US
6295522,,,,,
69448548,2791 Mogadore Road,Akron,OH,44312,US
8496340,Hcr 2,Stapleton,NE,69163,US
8500098,3701 Michelson Street,Lakewood,CA,90712,US
4676817,,,,,
34159,Accounts Payable,Clayton,GA,30525,US
8512625,241 Trumbo Road,Key West,FL,33040,US
15720717,5311 Longwood Avenue,Parma,OH,44134,US
6296020,,,MO,,US
8515756,P.O. Box 469,Fort Thompson,SD,57339,US
7261958,26 Court St,Boston,MA,2108,US
6295615,,,CA,,US
266433,709 NW 21st Street,Fort Worth,TX,76164,US
8854424,,Huntington,NY,,
8279947,211 Browns Trace Rd,Jericho,VT,5465,US
4227761,Henne Drive,Bilston,W Midlands,WV14 9JW,GB
8485091,4857 Bloom Ave,White Bear Lake,MN,55110,US
8526292,412 South Main Street,Wichita,KS,67202,US
8519822,1732 Katyland Drive,Katy,TX,77493,US
8278388,6000 South Marginal Rd,Cleveland,OH,44103,US
6024588,,,,,
97134000,209 North Crutchfield St,Dobson,NC,27017,US
59370096,300 E 4th St (955.13 mi),Chaska,MN,55318,US
6024836,,,,,
8518037,4726 W Highway 36,Dayton,ID,83232,US
16108076,1801 N Eola Road,Aurora,IL,60502,US
68444795,301 W. Camp Wisdom Rd.,Dallas,TX,75232,US
6295735,4063 Frank Scott Pkwy,Belleville,IL,62223,US
2845223,Dyfrig Street,Shotts,Lanarkshire,ML7 4DH,GB
8516514,371 1st Avenue South,Baxter,TN,38544,US
4896021,352 Commercial Road,London,,E1 0LB,GB
2620164,7910 Winston Ranch Pkwy,Richmond,TX,77406,US
8492580,2202 Macedonia Church Rd,Ronda,NC,28670,US
8532945,4800 Spencer Rd,Le Roy,WV,25252,US
8521527,1895 Longmire Road,Conroe,TX,77304,US
1941662,P.O. Box 11533,Dubai,,,AE
15897193,2801 S. Shartel Ave.,Oklahoma City,OK,73109,US
8519251,115 High St,Bradford,IL,61421,US
8512344,210 Duval Street,Madison,FL,32340,US
6295955,,,,,
8275241,No Location Available,North Berwick,ME,3906,US
2567019,2200 31st St,Columbus,NE,68601,US
97113091,,,,,
6024524,,62162,,Vieille-Eglise,FR
96922493,2738 Higgins St,,BC,V8T 3N1,CA
8529048,3019 Higgins Blvd.,New Orleans,LA,70126,US
8535757,256 Upton Ave S,Minneapolis,MN,55405,US
8485503,4629 144th Street West,Apple Valley,MN,55124,US
6296390,,,,,
68017369,"4700 Rockside Road, Suite 345",Independence,OH,44131,US
8534419,8485 Homestead Dr,Zeeland,MI,49464,US
8510628,20448 Ne Pennington Ave,Blountstown,FL,32424,US
6024293,,Bar-le-Duc,,55000,FR
4774049,918 South Soto Street,Los Angeles,CA,90023,US
8529170,385 Obrien Rd,Port Angeles,WA,98362,US
79376523,,,Outside the U.S.,,US
1144895,16001 Lincoln,Harvey,IL,60426,US
8520098,17 Rustic Campus Dr,Ullin,IL,62992,US
65084775,405 Geziret Mohammad,Cairo,,,EG
2987739,Loyalty Road,Hartlepool,Cleveland,TS25 5BA,GB
8528414,W 105 11th St,Kettle Falls,WA,99141,US
97113400,,,,,
6024858,,,,,
8526704,7313 Route 4 West,Bridgewater,VT,5034,US
6025412,,Eancer Menzeh8,,,ZA
96732787,9400 Fellsmere Rd,Sebastian,FL,32958,US
8526167,148 Votech Rd,Jetersville,VA,23083,US
2784399,Saltwell Road South,Gateshead,Tyne & Wear,NE9 6LE,GB
8491686,4039 East Raymond St,Phoenix,AZ,85040,US
6739952,104 VSDB Drive,Staunton,VA,24402,US
6024565,,,,,
6024531,,LYON,,69008,FR
8512905,7071 Garden Road,West Palm Beach,FL,33404,US
6024703,,,,,
97109648,,,,,
8491780,200 School Ln,Seeley Lake,MT,59868,US
8507480,900 North Ohio,Haskell,OK,74436,US
6210810,1855 Calhoun Rd.,Greenwood,SC,29649,
8511190,500 Alabama Street,Crestview,FL,32536,US
4299365,Sewardstone Road,London,,E2 9JG,GB
6025171,,,,,
8274064,218 Golden Gate Ave East,Wilder,ID,83676,US
8489767,2014 North Citrus Rd,Goodyear,AZ,85338,US
8277114,Rr 1 Box 1 C,Stella,NE,68442,US
6294545,,,,,
6025278,,,,,CA
7065585,,,,,
13805023,chemin de piailles,Saint orens de gameville,,,FR
1381624,8670 210th Street West,Bussey,MN,55044,US
8520433,6700 Bellaire Boulevard,Houston,TX,77074,US
17911708,375 East McClain Avenue,Scottsburg,IN,47170-1798,US
6025110,,,,,
1126809,,,,,
30126,Attn: Accounts Payable,Tucker,GA,30084,US
3970315,,Amritsar,,,IN
8277454,3405 West Pan American Fwy Ne,Albuquerque,NM,87501,US
20895233,,,,,
8531281,514 West Central Street,Loyal,WI,54446,US
8486554,417 29th St S,Birmingham,AL,35223,US
6024947,,villeurbanne,,69100,FR
8489454,12 18 Grand Ave,Yazoo City,MS,39194,US
8280037,6160 Kempsville Cr.,Norfolk,VA,23502,US
97103402,,,,,
8532522,20 Forrest Ave,Ellsworth,ME,4605,US
6024905,,,,,
8499447,10725 Alta St,Nevada City,CA,95959,US
196854,939 Level Creek Road,Buford,GA,30518,US
8276636,1212 East Main St,Linn,MO,65051,US
97011366,1924 Dutch Valley Dr,Knoxville,TN,37918,US
5151028,,,,HA7 4BQ,GB
2749170,500 Court Ave,Gaylord,MN,55334,US
8536611,P.O. Box 4000,Walker,MN,56484,US
9982827,344 Cheomdandong-ro,Incheon,,22742,KR
44064203,123 W Glenoaks Blvd,Glendale,CA,91202,US
6024001,,Sonnay,,38150,FR
3262149,,,,,
3214347,,,,,GB
8493442,165 Roanoke Road,El Cajon,CA,92021,US
6096329,,,,,
8522552,P O Box 97533,Wichita Falls,TX,76307,US
8528456,1254 MacArthur Drive,Alexandria,LA,71303,US
6294572,,,MT,,US
6024600,,,,,
3385413,4300 Wilcomico Ave,Beltsville,MD,20705,US
6024874,,,,,
8512602,200 South 7th Street,Palatka,FL,32177,US
8492560,401 North Drr St,Durham,NC,27703,US
6025391,,tour de trÃªme,,,CH
8513528,1151 East 28th Street,Sanford,FL,32773,US
8521232,P O Box 128,Mullin,TX,76864,US
3207116,,,,DN5 0TE,GB
6025311,,Solre-saint-GÃ©ry,,6500,BE
6296605,,,,,
8536422,1607 51st Ave N,Minneapolis,MN,55430,US
68134146,9000 Bellaire Blvd,Houston,TX,77036-4683,US
7730279,912 South Gay St,Knoxville,TN,37902,US
8491374,2427 North 15 Rd,Worden,MT,59088,US
8499170,101 South Canal St,Carlsbad,NM,88220,US
8490854,1500 Sunset Dr,Superior,AZ,85273,US
8492125,Constellation Avenue,N.A.S. Lemoore,CA,93245,US
4177305,,,,,IN
8272942,3891 South Camino Sierra Panta,Tucson,AZ,85730,US
1941793,Bliston Road,Tipton,W Midlands,DY4 0BZ,GB
8529039,4407 172nd St Ne,Arlington,WA,98223,US
8536415,812 Plymouth Avenue N,Minneapolis,MN,55411,US
4386565,,,,,AU
8515612,759 5th St,Britton,SD,57430,US
6296579,,,,,
6024449,,TARGON,,33760,FR
87394586,,,California,,US
6024579,,Parent,,,FR
3228806,59 A Marsh Rd.,Pelham,NH,3076,US
5943824,,,,,
8529219,216 East 4th St,Port Angeles,WA,98362,US
6024750,,,,,
8489158,307 West Hill St,Ola,AR,72853,US
2698391,,,,,
7304123,660 Browsey Avenue,Duncan,BC,V9L 1C2,CA
9261234,מועצה אזורית עמק חפר,,,40250,IL
71304788,1900 W. Schunior,Edinburg,Texas,78541,US
6024856,,,,,
6024697,,,,,
8526339,800 Rifle Range Rd,Fort Riley,KS,66641,US
8277834,100 1st Ave SW,LaMoure,ND,58458,US
2575005,9 Langton Road,East Calder,W Lothian,EH53 0BL,GB
7642528,1301 East Young St,Longview,TX,75602,US
5728805,,,,,
8519693,15601 Us Hwy 150,Paris,IL,61944,US
8490289,8055 North 24th Ave,Phoenix,AZ,85021,US
6295551,,,CA,,US
8274372,Rr 71 East 3231,Ottawa,IL,61350,US
8536626,1820 Xenium Ln N,Plymouth,MN,55441,US
8526683,600 East Main St,Richmond,VA,23219,US
8518450,3801 Silo Road,Bonham,TX,75418,US
6024793,,,,,
65852024,625 Park Avenue Lake Park,West Palm Beach,FL,33403,US
8511371,6901 Parker Avenue,West Palm Beach,FL,33405,US
64703749,Box 360,Stoughton,SK,S0G 4T0,CA
5232736,היצירה 1,פתח תקווה,,,IL
8500824,195 Broadway,Lawrence,NY,11559,US
8277358,10 Gail Ct,Sparta,NJ,7871,US
8521487,1673 Terre Colony Court,Dallas,TX,75212,US
66289816,Bhimshen Thapa Gaun Palika -3,Gorkha,,,NP
3383636,8169 West Victory Road,Boise,ID,83709,US
97101298,,,,,
8276423,136 Division Street,Waite Park,MN,56387,US
8511776,2980 Collins Avenue,Saint Augustine,FL,32084,US
1941580,Monks Orchard Road,Beckenham,Kent,BR3 3RX,GB
8521080,963 North 5000w Rd,Kankakee,IL,60901,US
5478680,,,,,CA
6024604,,,,,
7803097,יהודה הימית 57,תל אביב,,6813455,IL
97112377,,,,,
8512604,1960 Landings Boulevard,Sarasota,FL,34231,US
66027881,"Masbar, Pokhara-7",Pokhara,,33700,NP
44063405,13820 Hagers Ferry Road,Huntersville,NC,28078,US
6295103,,,CA,,US
2462571,304 Mill St.,Woodsfield,OH,43793,US
8274971,100 North 3rd Street,Madison,KS,66860,US
8535437,500 South Elm Street,Suttons Bay,MI,49682,US
8068990,P.O. Box 5384,Cincinnati,OH,45201,US
66179962,Rosario,Agusan Del Sur,,,PH
8513327,494 North Manatee Avenue,Arcadia,FL,34266,US
16284569,שד עמק חפר 52,אשקלון,,,IL
8486256,401 E 1st St S,Truman,MN,56088,US
8279956,53 School St,Orleans,VT,5860,US
4316887,,,,,HK
6024021,,ghisonaccia,,20240,FR
6024710,,,,,
8532990,Hc 76 Box 750,Mount Storm,WV,26739,US
8519758,P O Box 392,Hamilton,TX,76531,US
96717589,3001 W. Elm St.,East Troy,WI,53120,US
66582522,1155 E. Cameron Street,Indianapolis,IN,46203,US
362027,3630 Park 42 Drive,Cincinnati,OH,45241,US
6294750,,,CO,,US
8523536,2362 Highway 18,Flora,IN,46929,US
8273019,7420 East Main St,Mesa,AZ,85207,US
8516144,310 5th St,Hayti,SD,57241,US
3407453,,,,,
13805026,1820 Walnut,St-Hubert,,,CA
6025283,,,,,
6122675,"1 Craig B. Gariepy Ave, District Office",Islip Terrace,NY,11752,
3976473,The Avenue,Middlesbrough,Cleveland,TS7 0AG,GB
8276670,2165 Hwy V,St Charles,MO,63301,US
75311780,,,Massachusetts,,US
8507738,695 E Joe Koelsch,Locust Grove,OK,74352,US
8535812,501 Minnesota Avenue,Big Lake,MN,55309,US
8527738,5770 Anton Rd,Madisonville,KY,42431,US
8440541,,54260,Longuyon,,FR
8519977,301 West P Street,Deer Park,TX,77536,US
8536426,11140 Bren Rd West,Minnetonka,MN,55343,US
6024434,,PARIS,,75015,FR
8512294,600 West 5th St,Mount Carmel,PA,17851,US
16284645,"שכ נחלת הר חב""""ד 139",קרית מלאכי,,,IL
6295780,,,,,
74675009,BIBLIOGRAPHIC SERVICES-SERIALS 5TH FLOOR CAMERON,EDMONTON,AB,T6G 2J8,CA
8536329,504 N Monroe St,Minneota,MN,56264,US
8522569,1901 East Villa Maria Road,Bryan,TX,77802,US
8521986,1291 North 6th Street #100,Monmouth,IL,61462,US
66343525,"Naval Base, Willingdon Island, Kochi",Kerala,,682004,IN
2793476,14 King Square,Whitefield,NH,3598,US
3385516,4201 Williams Rd,Waco,TX,76705,US
6025077,,ISSY LES MOULINEAUX,,92130,FR
8515801,515 Main Ave,Florence,SD,57235,US
5147043,,,,,US
8532002,522 North 3rd Avenue,Edgar,WI,54426,US
2832366,,,,WF17 8PH,GB
3520171,5100 Knoll Creek,San Antonio,TX,78247,US
2606161,P.O. Box 30002,Durham,NC,27702,US
6024538,,Vénissieux,,69200,FR
3452173,Presa Jales Norte S/N Col. Puerta de Hierro,Pachuca de Soto,Hidalgo,,MX
8514635,210 East Johnson St,Dublin,GA,31021,US
67830663,31350 Rancho Vista Rd,Temecula,CA,92592,US
96686418,5326 US Hwy 220 Business South,Asheboro,NC,27205,US
8491092,338 North Morley Ave,Nogales,AZ,85621,US
8491698,1047 South 4th Ave,Yuma,AZ,85364,US
10059833,901 Myrtle Ave,Eureka,CA,95501,US
8515606,1401 East 26th St,Sioux Falls,SD,57501,US
2178663,Mas de León 5,Valencia,,46530,ES
97110150,,,,,
8512590,210 Duval Street,Madison,FL,32340,US
6645583,106 North Front Ave,Prestonsburg,KY,41653,US
8505457,7930 Indian Village Heights,Pueblo,CO,81008,US
6024338,,Tassin la demi lune,,69160,FR
5772812,1422 Route 179,Lambertville,NJ,8530,US
4294490,,,,CA1 2BQ,GB
8512551,13125 Southwest 72nd Street,Miami,FL,33183,US
8493216,1615 East 5th St,Charlotte,NC,28204,US
16171665,4 Summer St,Haverhill,MA,1830,US
8504657,555 8th Street,Dacono,CO,80514,US
6024186,,MARSEILLE,,13015,FR
6294596,,,,,
8494296,525 Independence Drive,Sutter Creek,CA,95685,US
8277630,50 Bell Rd,Asheville,NC,28805,US
1126802,,,,,
94218969,411 5th Ave South,Virginia,MN,55792,US
2965400,22601 Tyler Rd,Lakeville,IN,46536,US
6244734,Dudley Wood Road,Dudley,W Midlands,DY2 0DB,GB
8498154,"5845 Allen Avenue, Suite 2",San Jose,CA,95123,US
11122,Accounts Payable,Halifax,NC,27839,US
9979244,הרצל 44,אור יהודה,,24000,IL
6024567,,,,,
15681686,88 Golf Links Road,Frankston South,VIC,3199,AU
8487818,900 Edgewood Dr,Maumelle,AR,72113,US
2232847,Windsor Road,Ascot,Berks.,SL5 7LH,GB
2506019,,,,,GB
2698614,De Parys Avenue,Bedford,Beds.,MK40 2TU,GB
1941728,Stanbridge Lane,Romsey,Hants.,SO51 0ZS,GB
60030713,3655 Teays Valley Rd.,Hurricane,WV,25526,US
68519947,140 S Heartz Rd,Coppell,TX,75019,US
5347032,Peričeva 4,1001 Ljubljana,,,SI
6025076,,la roche sur yon,,85000,FR
44066537,,,,,
8529266,1426 Napoleon Avenue,New Orleans,LA,70115,US
68491215,599 Celebration Pl,Celebration,FL,34747,US
6025397,,Leytron,,1912,CH
8279757,11500 Northwest Freeway,Houston,TX,77092,US
8533986,15000 Southfield Fwy,Detroit,MI,48223,US
97012172,1955 Fremont Ave,South Pasadena,CA,91030,US
8488539,1210a South Main St,Maryville,MO,64468,US
7986806,4684 Ontaro Road Parkway,Ontario,CA,91764,US
8531265,124 S School St,Alma Center,WI,54611,US
7169194,"7, La Iglesia St",Palencia,,34880,ES
44061763,,,California,,US
8530679,1101 3rd Street,Clear Lake,WI,54005,US
8486122,3241 Oak Ham Ln,Saint Cloud,MN,56301,US
1941505,c/o Westminster Kingsway College,London,,SW1E 6DR,GB
8520217,2700 West 15th Street,Plano,TX,75075,US
8273185,2600 West Markham St,Little Rock,AR,72203,US
8277302,880route 45,Woodstown,NJ,8098,US
8531524,832 West 3rd Street,Owen,WI,54460,US
6025133,,,,,
8503827,301 Lane 28,Pueblo,CO,81001,US
8509249,,Stratford,CT,6615,US
65295639,"St-18-A, Block-3, KDA Scheme No. 24,","Karachi, Karachi City, Sindh",,,PK
1206806,401 N. Whitehall Road,Norristown,PA,19403,US
3281461,,,,,
8274909,405 West Parallel,Clyde,KS,66938,US
6024724,,,,,
8527343,692 Newtown Pk,Lexington,KY,40580,US
11692121,310 S. Cherry Street,Tomball,TX,77375,US
84780037,,Cauca,,,CO
4512685,,,,4110,NZ
8528212,1330 North 90 St,Seattle,WA,98117,US
8510311,2415 Bob Phillips Road,Bartow,FL,33830,US
4282751,,,,NE3 3YF,GB
1941743,Knocklyon,Dublin,,16,IE
8495169,302 West Plum,Doniphan,NE,68832,US
6024935,,Gradignan,,33170,FR
8520711,401 Katherine Dunham Place,East Saint Louis,IL,62201,US
97102903,,,,,
8274450,225 East Nicholas St,Carlinville,IL,62626,US
97376343,"המועצה, כיכר בן גוריון 1",קרית טבעון,,3608101,IL
3812534,1660 Winder Highway,Jefferson,,30549,US
6296547,,,,,
18902228,48 Xueye Road,,上海市,200126,CN
8510266,29841 Sw Liberty Wilderness Camp Rd,Bristol,FL,32321,US
2354230,411 Pearson Avenue,Waverly,KS,66871,US
6024122,,Le Chesnay,,78150,FR
8500386,1638 Mono Ave,Minden,NV,89423,US
2744548,600 East Harvey St.,Ely,MN,55731,US
6112824,,,,,
6024156,,VERNON,,27200,FR
3921938,Brandenburger Str. 1,Viersen,,41751,DE
4896030,,Birmingham,,B21 0HN,GB
6210507,"7720 West Oakland Blvd
Suite 323",Sunrise,FL,33351,US
8485987,101 Perryman St,Evergreen,AL,36401,US
2233063,1946 Bathgate Ave,Bronx,NY,10457,US
14434212,Rue de la Tour Rouge 7,Villeneuve,,1844,CH
8498240,327 East Ridgewood Ave,Paramus,NJ,7652,US